NORAD_CAT_ID,OBJECT_NAME,OBJECT_TYPE,EPOCH,MEAN_MOTION,ECCENTRICITY,INCLINATION,RA_OF_ASC_NODE,ARG_OF_PERICENTER,MEAN_ANOMALY,BSTAR,MEAN_MOTION_DOT,MEAN_MOTION_DDOT,TLE_LINE0,TLE_LINE1,TLE_LINE2,SEMIMAJOR_AXIS,PERIOD,APOGEE,PERIGEE,DECAYED
52466.0,STARLINK-3840,PAYLOAD,2022-05-23 14:00:01,15.73185521,0.0002603,53.2151,181.2943,28.9912,138.7099,-2.4484e-05,-4.055e-05,0.0,0 STARLINK-3840,1 52466U 22049R   22143.58334491 -.00004055  00000-0 -24484-4 0  9991,2 52466  53.2151 181.2943 0002603  28.9912 138.7099 15.73185521  1301,6727.936,91.534,351.55300000000005,348.05,0.0
52466.0,STARLINK-3840,PAYLOAD,2022-05-23 16:00:00,15.73244646,0.0002421,53.2149,180.8812,17.6815,262.2785,-0.00035741,-0.00050585,0.0,0 STARLINK-3840,1 52466U 22049R   22143.66667824 -.00050585  00000-0 -35741-3 0  9995,2 52466  53.2149 180.8812 0002421  17.6815 262.2785 15.73244646  2886,6727.768,91.531,351.26199999999994,348.004,0.0
52466.0,STARLINK-3840,PAYLOAD,2022-05-23 22:00:01,15.7318538,0.00022,53.2152,179.6425,18.4666,238.2934,0.00046197,0.00064678,0.0,0 STARLINK-3840,1 52466U 22049R   22143.91668981  .00064678  00000-0  46197-3 0  9991,2 52466  53.2152 179.6425 0002200  18.4666 238.2934 15.73185380  1308,6727.937,91.534,351.282,348.32199999999995,0.0
52466.0,STARLINK-3840,PAYLOAD,2022-05-24 13:41:06,15.73202828,0.00023,53.2154,176.4073,29.3638,330.7511,-4.5446e-06,-1.26e-05,0.0,0 STARLINK-3840,1 52466U 22049R   22144.57021121 -.00001260  00000-0 -45446-5 0  9991,2 52466  53.2154 176.4073 0002300  29.3638 330.7511 15.73202828  2874,6727.887,91.533,351.3,348.205,0.0
52466.0,STARLINK-3840,PAYLOAD,2022-05-24 14:00:01,15.73152243,0.0002482,53.2153,176.3457,18.0941,56.4588,0.00026153,0.0003617,0.0,0 STARLINK-3840,1 52466U 22049R   22144.58334491  .00036170  00000-0  26153-3 0  9997,2 52466  53.2153 176.3457 0002482  18.0941  56.4588 15.73152243  3031,6728.031,91.536,351.566,348.226,0.0
52466.0,STARLINK-3840,PAYLOAD,2022-05-24 22:00:00,15.73157918,0.0002326,53.2156,174.6941,21.4884,141.9671,5.9177e-05,7.677e-05,0.0,0 STARLINK-3840,1 52466U 22049R   22144.91667824  .00007677  00000-0  59177-4 0  9996,2 52466  53.2156 174.6941 0002326  21.4884 141.9671 15.73157918  1309,6728.015,91.536,351.445,348.315,0.0
52466.0,STARLINK-3840,PAYLOAD,2022-05-25 06:00:00,15.73176788,0.0002518,53.2156,173.0458,26.3092,226.0272,0.00023338,0.00032229,0.0,0 STARLINK-3840,1 52466U 22049R   22145.25001157  .00032229  00000-0  23338-3 0  9995,2 52466  53.2156 173.0458 0002518  26.3092 226.0272 15.73176788  3134,6727.9609999999975,91.535,351.52,348.13199999999995,0.0
52466.0,STARLINK-3840,PAYLOAD,2022-05-25 14:00:01,15.73188027,0.0002677,53.2149,171.3973,23.3447,317.8868,0.00047618,0.00066714,0.0,0 STARLINK-3840,1 52466U 22049R   22145.58334491  .00066714  00000-0  47618-3 0  9994,2 52466  53.2149 171.3973 0002677  23.3447 317.8868 15.73188027  1302,6727.929,91.534,351.595,347.99300000000005,0.0
52466.0,STARLINK-3840,PAYLOAD,2022-05-25 22:00:00,15.73214512,0.0002275,53.2149,169.7457,23.9806,46.2205,0.00012922,0.00017564,0.0,0 STARLINK-3840,1 52466U 22049R   22145.91667824  .00017564  00000-0  12922-3 0  9999,2 52466  53.2149 169.7457 0002275  23.9806  46.2205 15.73214512  1306,6727.854,91.532,351.249,348.18800000000016,0.0
52466.0,STARLINK-3840,PAYLOAD,2022-05-26 05:19:36,15.73180762,0.000198,53.2154,168.2339,31.4121,328.7017,-4.176600000000001e-05,-6.474e-05,0.0,0 STARLINK-3840,1 52466U 22049R   22146.22195395 -.00006474  00000-0 -41766-4 0  9992,2 52466  53.2154 168.2339 0001980  31.4121 328.7017 15.73180762  3299,6727.95,91.534,351.147,348.483,0.0
52466.0,STARLINK-3840,PAYLOAD,2022-05-26 11:25:31,15.73235124,0.0001889,53.2152,166.9762,33.9421,326.172,0.00012893,0.00017539,0.0,0 STARLINK-3840,1 52466U 22049R   22146.47605327  .00017539  00000-0  12893-3 0  9990,2 52466  53.2152 166.9762 0001889  33.9421 326.1720 15.73235124  3331,6727.795,91.531,350.931,348.389,0.0
52466.0,STARLINK-3840,PAYLOAD,2022-05-26 12:56:59,15.73219325,0.0001931,53.2151,166.6618,34.9835,325.1311,3.6913e-05,4.567e-05,0.0,0 STARLINK-3840,1 52466U 22049R   22146.53958278  .00004567  00000-0  36913-4 0  9990,2 52466  53.2151 166.6618 0001931  34.9835 325.1311 15.73219325  3188,6727.84,91.532,351.004,348.406,0.0
52466.0,STARLINK-3840,PAYLOAD,2022-05-26 20:00:01,15.7318171,0.0002394,53.2153,165.2096,21.5123,203.325,8.3394e-05,0.0001109,0.0,0 STARLINK-3840,1 52466U 22049R   22146.83334491  .00011090  00000-0  83394-4 0  9992,2 52466  53.2153 165.2096 0002394  21.5123 203.3250 15.73181710  3388,6727.946999999999,91.534,351.423,348.202,0.0
52466.0,STARLINK-3840,PAYLOAD,2022-05-26 22:00:00,15.73155965,0.0002347,53.2151,164.7968,22.8183,314.257,0.00045447,0.00063529,0.0,0 STARLINK-3840,1 52466U 22049R   22146.91667824  .00063529  00000-0  45447-3 0  9990,2 52466  53.2151 164.7968 0002347  22.8183 314.2570 15.73155965  1306,6728.021,91.536,351.465,348.307,0.0
52466.0,STARLINK-3840,PAYLOAD,2022-05-27 14:00:01,15.73262442,0.0002591,53.215,161.5002,25.2535,129.6669,-0.00039489,-0.00055834,0.0,0 STARLINK-3840,1 52466U 22049R   22147.58334491 -.00055834  00000-0 -39489-3 0  9996,2 52466  53.2150 161.5002 0002591  25.2535 129.6669 15.73262442  1304,6727.717,91.53,351.325,347.839,0.0
52466.0,STARLINK-3840,PAYLOAD,2022-05-27 16:00:00,15.73274268,0.0002521,53.2144,161.0865,23.9759,243.1922,-0.00065396,-0.00091714,0.0,0 STARLINK-3840,1 52466U 22049R   22147.66667824 -.00091714  00000-0 -65396-3 0  9997,2 52466  53.2144 161.0865 0002521  23.9759 243.1922 15.73274268  3513,6727.683000000001,91.529,351.244,347.852,0.0
52466.0,STARLINK-3840,PAYLOAD,2022-05-27 22:00:01,15.73211639,0.0002299,53.2144,159.84799999999996,24.9941,218.9834,0.00015509,0.00021212,0.0,0 STARLINK-3840,1 52466U 22049R   22147.91668981  .00021212  00000-0  15509-3 0  9995,2 52466  53.2144 159.8480 0002299  24.9941 218.9834 15.73211639  1307,6727.861999999999,91.533,351.274,348.18,0.0
52466.0,STARLINK-3840,PAYLOAD,2022-05-28 06:00:02,15.73227333,0.0002496,53.2145,158.1999,26.85,306.0981,-7.8313e-06,-1.723e-05,0.0,0 STARLINK-3840,1 52466U 22049R   22148.25002315 -.00001723  00000-0 -78313-5 0  9997,2 52466  53.2145 158.1999 0002496  26.8500 306.0981 15.73227333  3612,6727.816999999999,91.532,351.362,348.00300000000016,0.0
52466.0,STARLINK-3840,PAYLOAD,2022-05-28 14:00:01,15.73228781,0.0002516,53.2143,156.5505,23.3603,38.4982,0.00011195,0.00015139,0.0,0 STARLINK-3840,1 52466U 22049R   22148.58334491  .00015139  00000-0  11195-3 0  9993,2 52466  53.2143 156.5505 0002516  23.3603  38.4982 15.73228781  1303,6727.813,91.532,351.371,347.985,0.0
52466.0,STARLINK-3840,PAYLOAD,2022-05-28 22:00:00,15.7325349,0.0002219,53.2147,154.8989,23.167,127.6584,-0.00010798,-0.00015784,0.0,0 STARLINK-3840,1 52466U 22049R   22148.91667824 -.00015784  00000-0 -10798-3 0  9995,2 52466  53.2147 154.8989 0002219  23.1670 127.6584 15.73253490  3717,6727.743,91.53,351.101,348.115,0.0
52466.0,STARLINK-3840,PAYLOAD,2022-05-29 14:00:01,15.73168855,0.0002418,53.2143,151.6015,15.4603,313.2395,-0.00077389,-0.00107727,0.0,0 STARLINK-3840,1 52466U 22049R   22149.58334491 -.00107727  00000-0 -77389-3 0  9998,2 52466  53.2143 151.6015 0002418  15.4603 313.2395 15.73168855  3824,6727.984,91.535,351.476,348.222,0.0
52466.0,STARLINK-3840,PAYLOAD,2022-05-29 20:00:01,15.73070517,0.0002174,53.2144,150.3629,17.7813,287.5786,0.00048629,0.00067805,0.0,0 STARLINK-3840,1 52466U 22049R   22149.83334491  .00067805  00000-0  48629-3 0  9991,2 52466  53.2144 150.3629 0002174  17.7813 287.5786 15.73070517  3856,6728.264,91.541,351.592,348.667,0.0
52466.0,STARLINK-3840,PAYLOAD,2022-05-29 22:00:00,15.73064058,0.000212,53.2144,149.9503,17.8022,39.76,0.00071338,0.00100117,0.0,0 STARLINK-3840,1 52466U 22049R   22149.91667824  .00100117  00000-0  71338-3 0  9996,2 52466  53.2144 149.9503 0002120  17.8022  39.7600 15.73064058  1308,6728.283,91.541,351.574,348.721,0.0
52466.0,STARLINK-3840,PAYLOAD,2022-05-30 12:00:00,15.7313332,0.0002416,53.2144,147.0663,16.1996,106.7963,0.00052525,0.00073537,0.0,0 STARLINK-3840,1 52466U 22049R   22150.50001157  .00073537  00000-0  52525-3 0  9996,2 52466  53.2144 147.0663 0002416  16.1996 106.7963 15.73133320  3964,6728.085,91.537,351.576,348.325,0.0
52466.0,STARLINK-3840,PAYLOAD,2022-05-30 14:00:01,15.73167693,0.0002364,53.2145,146.6534,16.3901,218.8143,0.00014194,0.00019319,0.0,0 STARLINK-3840,1 52466U 22049R   22150.58334491  .00019319  00000-0  14194-3 0  9992,2 52466  53.2145 146.6534 0002364  16.3901 218.8143 15.73167693  1308,6727.986999999999,91.535,351.4430000000001,348.26199999999994,0.0
52466.0,STARLINK-3840,PAYLOAD,2022-05-30 22:00:00,15.73161288,0.00022,53.215,145.002,20.3982,303.7012,0.00062611,0.00088034,0.0,0 STARLINK-3840,1 52466U 22049R   22150.91667824  .00088034  00000-0  62611-3 0  9995,2 52466  53.2150 145.0020 0002200  20.3982 303.7012 15.73161288  4025,6728.005999999999,91.535,351.351,348.39,0.0
52466.0,STARLINK-3840,PAYLOAD,2022-05-31 02:43:36,15.73166062,0.000296,53.2139,144.0291,14.8754,345.2353,0.000131,0.00017778,0.0,0 STARLINK-3840,1 52466U 22049R   22151.11362156  .00017778  00000-0  13100-3 0  9994,2 52466  53.2139 144.0291 0002960  14.8754 345.2353 15.73166062  4067,6727.9919999999975,91.535,351.848,347.865,0.0
52466.0,STARLINK-3840,PAYLOAD,2022-05-31 05:46:34,15.7317886,0.0001785,53.2148,143.3974,38.5348,321.58,0.0001356,0.00018435,0.0,0 STARLINK-3840,1 52466U 22049R   22151.24067587  .00018435  00000-0  13560-3 0  9999,2 52466  53.2148 143.3974 0001785  38.5348 321.5800 15.73178860  3920,6727.955,91.534,351.021,348.62,0.0
52466.0,STARLINK-3840,PAYLOAD,2022-05-31 14:00:01,15.73287965,0.0002389,53.2148,141.7045,17.8943,124.0781,-0.0006014,-0.00084511,0.0,0 STARLINK-3840,1 52466U 22049R   22151.58334491 -.00084511  00000-0 -60140-3 0  9993,2 52466  53.2148 141.7045 0002389  17.8943 124.0781 15.73287965  4138,6727.644,91.528,351.117,347.902,0.0
